H1 CPF 01  gfz 2021 05 22 12  6422 terrasarx 
H2 0702601  6201 31698    2021 05 22 12 59 42 2021 05 27 00 00 42   120 1 1  0 0 0
H9
10 0 59360  32382.000000  0   -1657144.788    406500.191  -6680529.126
10 0 59360  32502.000000  0   -2248141.685   1063590.293  -6430734.693
10 0 59360  32622.000000  0   -2788755.395   1712152.178  -6068706.598
10 0 59360  32742.000000  0   -3269839.345   2339963.462  -5600686.485
10 0 59360  32862.000000  0   -3683468.816   2934989.152  -5034761.947
10 0 59360  32982.000000  0   -4023076.068   3485611.865  -4380738.175
10 0 59360  33102.000000  0   -4283560.028   3980859.808  -3649977.618
10 0 59360  33222.000000  0   -4461367.596   4410628.367  -2855211.442
10 0 59360  33342.000000  0   -4554547.032   4765890.834  -2010324.065
10 0 59360  33462.000000  0   -4562770.266   5038892.214  -1130113.238
10 0 59360  33582.000000  0   -4487324.029   5223322.879   -230029.536
10 0 59360  33702.000000  0   -4331066.439   5314465.102    674101.272
10 0 59360  33822.000000  0   -4098352.397   5309308.938   1566363.365
10 0 59360  33942.000000  0   -3794928.175   5206634.047   2431041.903
10 0 59360  34062.000000  0   -3427796.633   5007053.577   3252909.070
10 0 59360  34182.000000  0   -3005057.867   4713021.277   4017498.585
10 0 59360  34302.000000  0   -2535730.943   4328802.273   4711364.526
10 0 59360  34422.000000  0   -2029559.765   3860407.157   5322319.719
10 0 59360  34542.000000  0   -1496808.518   3315491.364   5839648.771
10 0 59360  34662.000000  0    -948051.065   2703222.910   6254291.876
10 0 59360  34782.000000  0    -393959.979   2034121.500   6558996.824
10 0 59360  34902.000000  0     154900.204   1319874.357   6748439.450
10 0 59360  35022.000000  0     688274.136    573129.432   6819311.687
10 0 59360  35142.000000  0    1196406.361   -192728.660   6770374.782
10 0 59360  35262.000000  0    1670218.676   -963817.505   6602480.511
10 0 59360  35382.000000  0    2101472.055  -1726008.078   6318557.520
10 0 59360  35502.000000  0    2482910.507  -2465182.967   5923564.371
10 0 59360  35622.000000  0    2808385.313  -3167499.175   5424408.426
10 0 59360  35742.000000  0    3072956.299  -3819649.876   4829830.564
10 0 59360  35862.000000  0    3272968.950  -4409120.562   4150258.103
10 0 59360  35982.000000  0    3406106.427  -4924435.730   3397625.986
10 0 59360  36102.000000  0    3471413.743  -5355388.827   2585168.485
10 0 59360  36222.000000  0    3469294.231  -5693251.385   1727185.219
10 0 59360  36342.000000  0    3401477.307  -5930955.433    838785.248
10 0 59360  36462.000000  0    3270958.997  -6063243.274    -64385.114
10 0 59360  36582.000000  0    3081917.501  -6086784.310   -966425.121
10 0 59360  36702.000000  0    2839602.857  -6000251.970  -1851470.242
10 0 59360  36822.000000  0    2550205.227  -5804359.333  -2703978.363
10 0 59360  36942.000000  0    2220706.365  -5501854.812  -3509009.389
10 0 59360  37062.000000  0    1858715.974  -5097476.198  -4252491.135
10 0 59360  37182.000000  0    1472298.820  -4597864.610  -4921463.357
10 0 59360  37302.000000  0    1069798.564  -4011444.302  -5504297.783
10 0 59360  37422.000000  0     659661.031  -3348270.819  -5990892.168
10 0 59360  37542.000000  0     250260.195  -2619850.701  -6372834.772
10 0 59360  37662.000000  0    -150269.083  -1838937.275  -6643538.268
10 0 59360  37782.000000  0    -534188.349  -1019306.272  -6798342.714
10 0 59360  37902.000000  0    -894300.237   -175514.787  -6834587.570
10 0 59360  38022.000000  0   -1224079.480    677352.658  -6751651.515
10 0 59360  38142.000000  0   -1517788.378   1523946.665  -6550961.384
10 0 59360  38262.000000  0   -1770574.210   2348922.323  -6235969.980
10 0 59360  38382.000000  0   -1978548.539   3137211.011  -5812104.376
10 0 59360  38502.000000  0   -2138847.306   3874293.072  -5286682.171
10 0 59360  38622.000000  0   -2249670.090   4546465.330  -4668796.787
10 0 59360  38742.000000  0   -2310298.614   5141100.282  -3969170.921
10 0 59360  38862.000000  0   -2321092.606   5646889.644  -3199978.899
10 0 59360  38982.000000  0   -2283462.812   6054067.416  -2374642.412
10 0 59360  39102.000000  0   -2199822.175   6354609.626  -1507600.821
10 0 59360  39222.000000  0   -2073515.924   6542402.369   -614057.828
10 0 59360  39342.000000  0   -1908731.694   6613374.821    290286.987
10 0 59360  39462.000000  0   -1710391.728   6565596.251   1189520.894
10 0 59360  39582.000000  0   -1484028.492   6399326.354   2067810.039
10 0 59360  39702.000000  0   -1235647.261   6117019.076   2909687.354
10 0 59360  39822.000000  0    -971580.793   5723283.598   3700331.446
10 0 59360  39942.000000  0    -698339.703   5224804.138   4425832.537
10 0 59360  40062.000000  0    -422461.389   4630218.064   5073442.256
10 0 59360  40182.000000  0    -150359.693   3949953.855   5631796.189
10 0 59360  40302.000000  0     111817.563   3196040.781   6091109.331
10 0 59360  40422.000000  0     358321.845   2381887.569   6443343.546
10 0 59360  40542.000000  0     583925.562   1522038.368   6682341.732
10 0 59360  40662.000000  0     784029.707    631909.144   6803929.764
10 0 59360  40782.000000  0     954755.301   -272489.466   6805983.858
10 0 59360  40902.000000  0    1093017.516  -1174838.816   6688466.327
10 0 59360  41022.000000  0    1196581.315  -2058806.505   6453426.826
10 0 59360  41142.000000  0    1264097.709  -2908341.817   6104969.442
10 0 59360  41262.000000  0    1295119.841  -3707969.188   5649185.252
10 0 59360  41382.000000  0    1290098.461  -4443072.523   5094049.977
10 0 59360  41502.000000  0    1250358.518  -5100165.730   4449290.643
10 0 59360  41622.000000  0    1178056.051  -5667148.028   3726221.843
10 0 59360  41742.000000  0    1076116.206  -6133537.284   2937549.733
10 0 59360  41862.000000  0     948153.485  -6490672.979   2097148.354
10 0 59360  41982.000000  0     798375.068  -6731886.306   1219813.741
10 0 59360  42102.000000  0     631470.919  -6852633.055    320998.779
10 0 59360  42222.000000  0     452492.275  -6850585.876   -583467.710
10 0 59360  42342.000000  0     266721.198  -6725678.612  -1477670.742
10 0 59360  42462.000000  0      79536.795  -6480104.031  -2345897.610
10 0 59360  42582.000000  0    -103719.244  -6118267.761  -3172919.975
10 0 59360  42702.000000  0    -277875.016  -5646699.401  -3944265.168
10 0 59360  42822.000000  0    -438055.304  -5073921.890  -4646470.699
10 0 59360  42942.000000  0    -579799.591  -4410284.088  -5267315.257
10 0 59360  43062.000000  0    -699168.727  -3667762.584  -5796024.302
10 0 59360  43182.000000  0    -792837.751  -2859736.526  -6223447.518
10 0 59360  43302.000000  0    -858173.420  -2000740.769  -6542206.177
10 0 59360  43422.000000  0    -893295.267  -1106202.554  -6746808.890
10 0 59360  43542.000000  0    -897119.573   -192166.789  -6833736.704
10 0 59360  43662.000000  0    -869384.935    724987.236  -6801496.552
10 0 59360  43782.000000  0    -810659.464   1628831.776  -6650643.242
10 0 59360  43902.000000  0    -722330.046   2503177.284  -6383770.890
10 0 59360  44022.000000  0    -606573.312   3332355.771  -6005474.163
10 0 59360  44142.000000  0    -466308.440   4101498.987  -5522278.338
10 0 59360  44262.000000  0    -305132.385   4796804.839  -4942537.014
10 0 59360  44382.000000  0    -127239.206   5405789.194  -4276299.515
10 0 59360  44502.000000  0      62675.651   5917518.197  -3535146.774
10 0 59360  44622.000000  0     259524.621   6322814.839  -2731997.908
10 0 59360  44742.000000  0     457948.500   6614435.809  -1880890.397
10 0 59360  44862.000000  0     652445.649   6787214.064   -996736.078
10 0 59360  44982.000000  0     837506.976   6838161.947    -95057.187
10 0 59360  45102.000000  0    1007753.342   6766531.672    808292.152
10 0 59360  45222.000000  0    1158071.551   6573830.079   1697412.739
10 0 59360  45342.000000  0    1283744.270   6263788.556   2556648.240
10 0 59360  45462.000000  0    1380571.749   5842289.312   3370868.478
10 0 59360  45582.000000  0    1444982.530   5317248.923   4125743.422
10 0 59360  45702.000000  0    1474131.005   4698461.460   4807999.933
10 0 59360  45822.000000  0    1465977.021   3997404.735   5405659.177
10 0 59360  45942.000000  0    1419346.471   3227015.765   5908242.213
10 0 59360  46062.000000  0    1333973.834   2401445.546   6306948.936
10 0 59360  46182.000000  0    1210523.808   1535793.004   6594807.260
10 0 59360  46302.000000  0    1050592.772    645824.307   6766788.944
10 0 59360  46422.000000  0     856689.742   -252315.277   6819890.782
10 0 59360  46542.000000  0     632197.212  -1142392.787   6753184.919
10 0 59360  46662.000000  0     381311.998  -2008381.167   6567834.907
10 0 59360  46782.000000  0     108966.837  -2834747.737   6267076.924
10 0 59360  46902.000000  0    -179265.509  -3606734.586   5856165.690
10 0 59360  47022.000000  0    -477283.150  -4310622.716   5342285.727
10 0 59360  47142.000000  0    -778579.781  -4933978.356   4734433.355
10 0 59360  47262.000000  0   -1076382.570  -5465881.109   4043267.719
10 0 59360  47382.000000  0   -1363800.178  -5897125.977   3280927.136
10 0 59360  47502.000000  0   -1633976.555  -6220391.813   2460816.473
10 0 59360  47622.000000  0   -1880247.895  -6430374.896   1597370.767
10 0 59360  47742.000000  0   -2096299.350  -6523883.477    705796.243
10 0 59360  47862.000000  0   -2276315.208  -6499889.456   -198205.130
10 0 59360  47982.000000  0   -2415119.928  -6359536.681  -1098720.834
10 0 59360  48102.000000  0   -2508306.715  -6106105.374  -1979916.593
10 0 59360  48222.000000  0   -2552350.585  -5744933.966  -2826322.606
10 0 59360  48342.000000  0   -2544702.637  -5283300.015  -3623111.360
10 0 59360  48462.000000  0   -2483862.978  -4730263.310  -4356359.878
10 0 59360  48582.000000  0   -2369431.136  -4096477.211  -5013290.636
10 0 59360  48702.000000  0   -2202133.672  -3393974.108  -5582488.144
10 0 59360  48822.000000  0   -1983828.983  -2635929.872  -6054089.014
99
